{
  "norad_id": 65886,
  "name": "STARLINK-35413",
  "history": [
    {
      "epoch": "2026-03-28T19:13:13.808928Z",
      "apogee_km": 475.86446829156193,
      "perigee_km": 474.5647986877875,
      "latitude_deg": 5.2211603989481813e-05,
      "longitude_deg": 167.82190782515107,
      "height_km": 476.12454794273094,
      "semi_major_axis_km": 6853.351633489675,
      "eccentricity": 9.482e-05,
      "inclination_deg": 53.1592,
      "raan_deg": 282.3455,
      "arg_perigee_deg": 91.0139,
      "mean_anomaly_deg": 269.0971,
      "mean_motion_rev_day": 15.30200146
    }
  ]
}